{
  "type": "FeatureCollection",
  "features": [
    {
      "type": "Feature",
      "properties": {
        "norad_id": 35165,
        "name": "FENGYUN 1C DEB",
        "group": "fengyun-1c-debris",
        "lat": 6.181324797217082,
        "lon": 92.0902796992253,
        "alt_km": 766.8017423529827,
        "timestamp": "2025-12-26T19:22:39.194420+00:00",
        "meta_object_name": "FENGYUN 1C DEB",
        "meta_object_id": "1999-025DMV",
        "meta_epoch": "2025-12-21T05:22:21.779616",
        "meta_mean_motion": 14.33882696,
        "meta_eccentricity": 0.0020007,
        "meta_inclination": 98.8797,
        "meta_ra_of_asc_node": 87.3309,
        "meta_arg_of_pericenter": 36.4089,
        "meta_mean_anomaly": 323.8451,
        "meta_ephemeris_type": 0,
        "meta_classification_type": "U",
        "meta_norad_cat_id": 35165,
        "meta_element_set_no": 999,
        "meta_rev_at_epoch": 89842,
        "meta_bstar": 0.0014686,
        "meta_mean_motion_dot": 4.055e-05,
        "meta_mean_motion_ddot": 0,
        "tle_line1": "1 35165U 99025DMV 25355.22386319  .00004055  00000+0  14686-2 0  9999",
        "tle_line2": "2 35165  98.8797  87.3309 0020007  36.4089 323.8451 14.33882696898426"
      },
      "geometry": {
        "type": "Point",
        "coordinates": [
          92.0902796992253,
          6.181324797217082
        ]
      }
    },
    {
      "type": "Feature",
      "properties": {
        "norad_id": 35167,
        "name": "FENGYUN 1C DEB",
        "group": "fengyun-1c-debris",
        "lat": -6.89650589342341,
        "lon": -5.336129930395443,
        "alt_km": 953.3412446590473,
        "timestamp": "2025-12-26T19:22:39.194432+00:00",
        "meta_object_name": "FENGYUN 1C DEB",
        "meta_object_id": "1999-025DMX",
        "meta_epoch": "2025-12-24T05:19:40.498464",
        "meta_mean_motion": 14.31185435,
        "meta_eccentricity": 0.02299079,
        "meta_inclination": 98.4495,
        "meta_ra_of_asc_node": 351.1168,
        "meta_arg_of_pericenter": 170.1263,
        "meta_mean_anomaly": 190.4555,
        "meta_ephemeris_type": 0,
        "meta_classification_type": "U",
        "meta_norad_cat_id": 35167,
        "meta_element_set_no": 999,
        "meta_rev_at_epoch": 70184,
        "meta_bstar": 0.00033183096,
        "meta_mean_motion_dot": 1.122e-05,
        "meta_mean_motion_ddot": 0,
        "tle_line1": "1 35167U 99025DMX 25358.22199651  .00001122  00000+0  33183-3 0  9991",
        "tle_line2": "2 35167  98.4495 351.1168 0229907 170.1263 190.4555 14.31185435701841"
      },
      "geometry": {
        "type": "Point",
        "coordinates": [
          -5.336129930395443,
          -6.89650589342341
        ]
      }
    },
    {
      "type": "Feature",
      "properties": {
        "norad_id": 35168,
        "name": "FENGYUN 1C DEB",
        "group": "fengyun-1c-debris",
        "lat": -46.23021154063115,
        "lon": 62.95083559122164,
        "alt_km": 916.4230059301499,
        "timestamp": "2025-12-26T19:22:39.194442+00:00",
        "meta_object_name": "FENGYUN 1C DEB",
        "meta_object_id": "1999-025DMY",
        "meta_epoch": "2025-12-21T22:57:46.882368",
        "meta_mean_motion": 14.15533628,
        "meta_eccentricity": 0.01261574,
        "meta_inclination": 98.2757,
        "meta_ra_of_asc_node": 247.1845,
        "meta_arg_of_pericenter": 100.9032,
        "meta_mean_anomaly": 260.6368,
        "meta_ephemeris_type": 0,
        "meta_classification_type": "U",
        "meta_norad_cat_id": 35168,
        "meta_element_set_no": 999,
        "meta_rev_at_epoch": 58054,
        "meta_bstar": 0.00025025253,
        "meta_mean_motion_dot": 4.9e-06,
        "meta_mean_motion_ddot": 0,
        "tle_line1": "1 35168U 99025DMY 25355.95679262  .00000490  00000+0  25025-3 0  9993",
        "tle_line2": "2 35168  98.2757 247.1845 0126157 100.9032 260.6368 14.15533628580542"
      },
      "geometry": {
        "type": "Point",
        "coordinates": [
          62.95083559122164,
          -46.23021154063115
        ]
      }
    },
    {
      "type": "Feature",
      "properties": {
        "norad_id": 35169,
        "name": "FENGYUN 1C DEB",
        "group": "fengyun-1c-debris",
        "lat": -6.788305135191651,
        "lon": -113.14142587797008,
        "alt_km": 666.4016466714547,
        "timestamp": "2025-12-26T19:22:39.194454+00:00",
        "meta_object_name": "FENGYUN 1C DEB",
        "meta_object_id": "1999-025DMZ",
        "meta_epoch": "2025-12-25T22:00:28.340352",
        "meta_mean_motion": 14.58720603,
        "meta_eccentricity": 0.0152527,
        "meta_inclination": 99.1286,
        "meta_ra_of_asc_node": 244.784,
        "meta_arg_of_pericenter": 68.0257,
        "meta_mean_anomaly": 293.7069,
        "meta_ephemeris_type": 0,
        "meta_classification_type": "U",
        "meta_norad_cat_id": 35169,
        "meta_element_set_no": 999,
        "meta_rev_at_epoch": 65972,
        "meta_bstar": 0.00049343,
        "meta_mean_motion_dot": 2.643e-05,
        "meta_mean_motion_ddot": 0,
        "tle_line1": "1 35169U 99025DMZ 25359.91699468  .00002643  00000+0  49343-3 0  9995",
        "tle_line2": "2 35169  99.1286 244.7840 0152527  68.0257 293.7069 14.58720603659721"
      },
      "geometry": {
        "type": "Point",
        "coordinates": [
          -113.14142587797008,
          -6.788305135191651
        ]
      }
    },
    {
      "type": "Feature",
      "properties": {
        "norad_id": 35171,
        "name": "FENGYUN 1C DEB",
        "group": "fengyun-1c-debris",
        "lat": 75.44417780746356,
        "lon": 114.1910353157061,
        "alt_km": 997.5708120081463,
        "timestamp": "2025-12-26T19:22:39.194464+00:00",
        "meta_object_name": "FENGYUN 1C DEB",
        "meta_object_id": "1999-025DNB",
        "meta_epoch": "2025-12-24T03:18:30.857760",
        "meta_mean_motion": 13.95016352,
        "meta_eccentricity": 0.01385164,
        "meta_inclination": 99.0083,
        "meta_ra_of_asc_node": 149.2404,
        "meta_arg_of_pericenter": 287.4174,
        "meta_mean_anomaly": 71.1884,
        "meta_ephemeris_type": 0,
        "meta_classification_type": "U",
        "meta_norad_cat_id": 35171,
        "meta_element_set_no": 999,
        "meta_rev_at_epoch": 88717,
        "meta_bstar": 0.0019248367,
        "meta_mean_motion_dot": 2.763e-05,
        "meta_mean_motion_ddot": 0,
        "tle_line1": "1 35171U 99025DNB 25358.13785715  .00002763  00000+0  19248-2 0  9995",
        "tle_line2": "2 35171  99.0083 149.2404 0138516 287.4174  71.1884 13.95016352887174"
      },
      "geometry": {
        "type": "Point",
        "coordinates": [
          114.1910353157061,
          75.44417780746356
        ]
      }
    },
    {
      "type": "Feature",
      "properties": {
        "norad_id": 35173,
        "name": "FENGYUN 1C DEB",
        "group": "fengyun-1c-debris",
        "lat": 2.9654687871586765,
        "lon": 71.34914914092303,
        "alt_km": 1488.6020674847132,
        "timestamp": "2025-12-26T19:22:39.194474+00:00",
        "meta_object_name": "FENGYUN 1C DEB",
        "meta_object_id": "1999-025DND",
        "meta_epoch": "2025-12-22T00:26:44.822112",
        "meta_mean_motion": 13.37371339,
        "meta_eccentricity": 0.04908426,
        "meta_inclination": 99.786,
        "meta_ra_of_asc_node": 67.2396,
        "meta_arg_of_pericenter": 191.1556,
        "meta_mean_anomaly": 167.8363,
        "meta_ephemeris_type": 0,
        "meta_classification_type": "U",
        "meta_norad_cat_id": 35173,
        "meta_element_set_no": 999,
        "meta_rev_at_epoch": 65953,
        "meta_bstar": 0.0019866257,
        "meta_mean_motion_dot": 2.041e-05,
        "meta_mean_motion_ddot": 0,
        "tle_line1": "1 35173U 99025DND 25356.01857433  .00002041  00000+0  19866-2 0  9994",
        "tle_line2": "2 35173  99.7860  67.2396 0490842 191.1556 167.8363 13.37371339659530"
      },
      "geometry": {
        "type": "Point",
        "coordinates": [
          71.34914914092303,
          2.9654687871586765
        ]
      }
    },
    {
      "type": "Feature",
      "properties": {
        "norad_id": 35174,
        "name": "FENGYUN 1C DEB",
        "group": "fengyun-1c-debris",
        "lat": 61.41228225517246,
        "lon": 174.079528632966,
        "alt_km": 461.5952847200597,
        "timestamp": "2025-12-26T19:22:39.194484+00:00",
        "meta_object_name": "FENGYUN 1C DEB",
        "meta_object_id": "1999-025DNE",
        "meta_epoch": "2025-12-13T04:07:25.072608",
        "meta_mean_motion": 14.98877767,
        "meta_eccentricity": 0.01541479,
        "meta_inclination": 98.9697,
        "meta_ra_of_asc_node": 321.54,
        "meta_arg_of_pericenter": 181.4297,
        "meta_mean_anomaly": 178.6503,
        "meta_ephemeris_type": 0,
        "meta_classification_type": "U",
        "meta_norad_cat_id": 35174,
        "meta_element_set_no": 999,
        "meta_rev_at_epoch": 90172,
        "meta_bstar": 0.0023807921,
        "meta_mean_motion_dot": 0.0003695,
        "meta_mean_motion_ddot": 0,
        "tle_line1": "1 35174U 99025DNE 25347.17181797  .00036950  00000+0  23808-2 0  9992",
        "tle_line2": "2 35174  98.9697 321.5400 0154147 181.4297 178.6503 14.98877767901722"
      },
      "geometry": {
        "type": "Point",
        "coordinates": [
          174.079528632966,
          61.41228225517246
        ]
      }
    }
  ]
}